ONEWEB-0597             
1 54663U 22166X   26182.89705725  .00000092  00000+0  19237-3 0  9998
2 54663  87.9245 241.0605 0001952  94.9237 265.2120 13.21827303173481
ONEWEB-0600             
1 54664U 22166Y   26182.87856994  .00000098  00000+0  20579-3 0  9999
2 54664  87.9245 241.0556 0001844  99.7443 260.3899 13.21824972173454
ONEWEB-0601             
1 54665U 22166Z   26182.87014194  .00000086  00000+0  17623-3 0  9991
2 54665  87.9240 241.0731 0001884  91.1040 269.0310 13.21824357173640
ONEWEB-0602             
1 54666U 22166AA  26182.91135201  .00000023  00000+0  24593-4 0  9996
2 54666  87.9240 241.0709 0001781 100.2181 259.9154 13.21827359173492
ONEWEB-0603             
1 54667U 22166AB  26182.91724643  .00000041  00000+0  67337-4 0  9994
2 54667  87.9260 241.0282 0001966 101.1073 259.0282 13.21827187173421
ONEWEB-0604             
1 54668U 22166AC  26182.90544507  .00000030  00000+0  41513-4 0  9999
2 54668  87.9253 241.0463 0002099 100.0276 260.1095 13.21828539173388
ONEWEB-0605             
1 54669U 22166AD  26182.89874315  .00000041  00000+0  66882-4 0  9999
2 54669  87.9245 241.0598 0002244  81.4122 278.7266 13.21827324173457
ONEWEB-0606             
1 54670U 22166AE  26182.92060198  .00000036  00000+0  56320-4 0  9991
2 54670  87.9244 241.0677 0002075 102.2613 257.8754 13.21824891173518
ONEWEB-0607             
1 54671U 22166AF  26182.88698025  .00000104  00000+0  22018-3 0  9995
2 54671  87.9252 241.0465 0001909  95.9900 264.1451 13.21824964173487
ONEWEB-0608             
1 54672U 22166AG  26182.89366548  .00000120  00000+0  25895-3 0  9993
2 54672  87.9254 241.0421 0001973  83.3020 276.8339 13.21828540173497
ONEWEB-0610             
1 54673U 22166AH  26182.87352242  .00000139  00000+0  30532-3 0  9992
2 54673  87.9244 241.0590 0001669  82.0957 278.0366 13.21825066173394
ONEWEB-0611             
1 54674U 22166AJ  26182.86677233  .00000191  00000+0  43045-3 0  9993
2 54674  87.9243 241.0560 0002150 100.7442 259.3934 13.21826162173384
ONEWEB-0612             
1 54675U 22166AK  26182.88025156  .00000105  00000+0  22202-3 0  9994
2 54675  87.9256 241.0507 0001988  93.1252 267.0110 13.21825639173371
ONEWEB-0615             
1 54676U 22166AL  26182.93574960  .00000093  00000+0  19303-3 0  9997
2 54676  87.9246 241.0529 0002120 105.0786 255.0583 13.21827493173392
ONEWEB-0655             
1 54677U 22166AM  26182.91219647  .00000068  00000+0  13393-3 0  9999
2 54677  87.9243 241.0588 0001721  98.7463 261.3866 13.21827144173387
ONEWEB-0659             
1 54678U 22166AN  26182.85332207  .00000033  00000+0  47506-4 0  9997
2 54678  87.9243 241.0701 0002095  97.1733 262.9639 13.21828324173468
ONEWEB-0685             
1 54679U 22166AP  26182.85317745  .00000025  00000+0  29431-4 0  9996
2 54679  87.9241 241.0618 0001848  87.8844 272.2501 13.21847801173359
ONEWEB-0712             
1 54680U 22166AQ  26182.87942461  .00000157  00000+0  37644-3 0  9999
2 54680  87.9087 225.8571 0001588 101.6129 258.5181 13.16595256173998
ONEWEB-0714             
1 54681U 22166AR  26182.85838151  .00000079  00000+0  15916-3 0  9999
2 54681  87.9246 241.0586 0001839 104.2635 255.8703 13.21824890173470
ONEWEB-0532             
1 55140U 23004A   26182.91598712  .00000040  00000+0  68645-4 0  9991
2 55140  87.9131   2.9338 0002150  84.4178 275.7199 13.17648306169523
ONEWEB-0533             
1 55141U 23004B   26182.94245761 -.00000356  00000+0 -10240-2 0  9996
2 55141  87.8952 347.7358 0001695  88.7339 271.3984 13.12441324169996
ONEWEB-0541             
1 55142U 23004C   26182.83128438  .00000416  00000+0  11369-2 0  9994
2 55142  87.8888  18.1432 0002018  90.5560 269.5800 13.11417235167867
ONEWEB-0543             
1 55143U 23004D   26182.88391212  .00000019  00000+0  15239-4 0  9993
2 55143  87.9174 332.5448 0001683 101.0279 259.1043 13.18686386171635
ONEWEB-0544             
1 55144U 23004E   26182.95304653 -.00000048  00000+0 -15426-3 0  9996
2 55144  87.9174 332.5309 0001905 101.7913 258.3433 13.18686612171648
ONEWEB-0560             
1 55145U 23004F   26182.94628769 -.00000027  00000+0 -10227-3 0  9994
2 55145  87.9176 332.5216 0001845 104.8516 255.2820 13.18687467171650
ONEWEB-0565             
1 55146U 23004G   26182.93956301  .00000040  00000+0  67521-4 0  9993
2 55146  87.9168 332.5496 0002219  99.8491 260.2892 13.18686487171648
ONEWEB-0567             
1 55147U 23004H   26182.93281663  .00000002  00000+0 -26437-4 0  9996
2 55147  87.9174 332.5365 0002138 102.7488 257.3883 13.18686599171642
ONEWEB-0569             
1 55148U 23004J   26182.93892871 -.00000348  00000+0 -98889-3 0  9999
2 55148  87.8979 317.2843 0002287 121.3671 238.7682 13.13470115172115
ONEWEB-0570             
1 55149U 23004K   26182.92438170  .00000005  00000+0 -21173-4 0  9999
2 55149  87.9173 332.5359 0002212  90.0274 270.1112 13.18685455171638
ONEWEB-0571             
1 55150U 23004L   26182.91763203  .00000625  00000+0  15534-2 0  9997
2 55150  87.9197 332.5380 0002685 120.2413 239.8985 13.18692367171646
