OBJECT_NAME,OBJECT_ID,EPOCH,MEAN_MOTION,ECCENTRICITY,INCLINATION,RA_OF_ASC_NODE,ARG_OF_PERICENTER,MEAN_ANOMALY,EPHEMERIS_TYPE,CLASSIFICATION_TYPE,NORAD_CAT_ID,ELEMENT_SET_NO,REV_AT_EPOCH,BSTAR,MEAN_MOTION_DOT,MEAN_MOTION_DDOT
ONEWEB-0597,2022-166X,2026-07-01T21:31:45.746400,13.21827303,.0001952,87.9245,241.0605,94.9237,265.2120,0,U,54663,999,17348,.1923667E-3,.92E-6,0
ONEWEB-0600,2022-166Y,2026-07-01T21:05:08.442816,13.21824972,.00018441,87.9245,241.0556,99.7443,260.3899,0,U,54664,999,17345,.205789E-3,.98E-6,0
ONEWEB-0601,2022-166Z,2026-07-01T20:53:00.263616,13.21824357,.00018842,87.9240,241.0731,91.1040,269.0310,0,U,54665,999,17364,.1762337E-3,.86E-6,0
ONEWEB-0602,2022-166AA,2026-07-01T21:52:20.813664,13.21827359,.00017812,87.9240,241.0709,100.2181,259.9154,0,U,54666,999,17349,.245931E-4,.23E-6,0
ONEWEB-0603,2022-166AB,2026-07-01T22:00:50.091552,13.21827187,.00019668,87.9260,241.0282,101.1073,259.0282,0,U,54667,999,17342,.67336921E-4,.41E-6,0
ONEWEB-0604,2022-166AC,2026-07-01T21:43:50.454048,13.21828539,.0002099,87.9253,241.0463,100.0276,260.1095,0,U,54668,999,17338,.41512631E-4,.3E-6,0
ONEWEB-0605,2022-166AD,2026-07-01T21:34:11.408160,13.21827324,.00022448,87.9245,241.0598,81.4122,278.7266,0,U,54669,999,17345,.66881994E-4,.41E-6,0
ONEWEB-0606,2022-166AE,2026-07-01T22:05:40.011072,13.21824891,.00020753,87.9244,241.0677,102.2613,257.8754,0,U,54670,999,17351,.56319984E-4,.36E-6,0
ONEWEB-0607,2022-166AF,2026-07-01T21:17:15.093600,13.21824964,.00019096,87.9252,241.0465,95.9900,264.1451,0,U,54671,999,17348,.22018255E-3,.104E-5,0
ONEWEB-0608,2022-166AG,2026-07-01T21:26:52.697472,13.21828540,.00019734,87.9254,241.0421,83.3020,276.8339,0,U,54672,999,17349,.25894913E-3,.12E-5,0
ONEWEB-0610,2022-166AH,2026-07-01T20:57:52.337088,13.21825066,.00016695,87.9244,241.0590,82.0957,278.0366,0,U,54673,999,17339,.30532144E-3,.139E-5,0
ONEWEB-0611,2022-166AJ,2026-07-01T20:48:09.129312,13.21826162,.00021507,87.9243,241.0560,100.7442,259.3934,0,U,54674,999,17338,.43044605E-3,.191E-5,0
ONEWEB-0612,2022-166AK,2026-07-01T21:07:33.734784,13.21825639,.0001988,87.9256,241.0507,93.1252,267.0110,0,U,54675,999,17337,.22201779E-3,.105E-5,0
ONEWEB-0615,2022-166AL,2026-07-01T22:27:28.765440,13.21827493,.00021208,87.9246,241.0529,105.0786,255.0583,0,U,54676,999,17339,.19303431E-3,.93E-6,0
ONEWEB-0655,2022-166AM,2026-07-01T21:53:33.775008,13.21827144,.00017211,87.9243,241.0588,98.7463,261.3866,0,U,54677,999,17338,.13393437E-3,.68E-6,0
ONEWEB-0659,2022-166AN,2026-07-01T20:28:47.026848,13.21828324,.00020952,87.9243,241.0701,97.1733,262.9639,0,U,54678,999,17346,.47506038E-4,.33E-6,0
ONEWEB-0685,2022-166AP,2026-07-01T20:28:34.531680,13.21847801,.00018483,87.9241,241.0618,87.8844,272.2501,0,U,54679,999,17335,.29430897E-4,.25E-6,0
ONEWEB-0712,2022-166AQ,2026-07-01T21:06:22.286304,13.16595256,.00015885,87.9087,225.8571,101.6129,258.5181,0,U,54680,999,17399,.37644253E-3,.157E-5,0
ONEWEB-0714,2022-166AR,2026-07-01T20:36:04.162464,13.21824890,.00018393,87.9246,241.0586,104.2635,255.8703,0,U,54681,999,17347,.15915596E-3,.79E-6,0
ONEWEB-0532,2023-004A,2026-07-01T21:59:01.287168,13.17648306,.000215,87.9131,2.9338,84.4178,275.7199,0,U,55140,999,16952,.68644918E-4,.4E-6,0
ONEWEB-0533,2023-004B,2026-07-01T22:37:08.337504,13.12441324,.0001695,87.8952,347.7358,88.7339,271.3984,0,U,55141,999,16999,-.10240233E-2,-.356E-5,0
ONEWEB-0541,2023-004C,2026-07-01T19:57:02.970432,13.11417235,.00020187,87.8888,18.1432,90.5560,269.5800,0,U,55142,999,16786,.11369486E-2,.416E-5,0
ONEWEB-0543,2023-004D,2026-07-01T21:12:50.007168,13.18686386,.00016834,87.9174,332.5448,101.0279,259.1043,0,U,55143,999,17163,.15239463E-4,.19E-6,0
ONEWEB-0544,2023-004E,2026-07-01T22:52:23.220192,13.18686612,.00019055,87.9174,332.5309,101.7913,258.3433,0,U,55144,999,17164,-.15425756E-3,-.48E-6,0
ONEWEB-0560,2023-004F,2026-07-01T22:42:39.256416,13.18687467,.00018453,87.9176,332.5216,104.8516,255.2820,0,U,55145,999,17165,-.1022732E-3,-.27E-6,0
ONEWEB-0565,2023-004G,2026-07-01T22:32:58.244064,13.18686487,.0002219,87.9168,332.5496,99.8491,260.2892,0,U,55146,999,17164,.675209E-4,.4E-6,0
ONEWEB-0567,2023-004H,2026-07-01T22:23:15.356832,13.18686599,.00021382,87.9174,332.5365,102.7488,257.3883,0,U,55147,999,17164,-.26436832E-4,.2E-7,0
ONEWEB-0569,2023-004J,2026-07-01T22:32:03.440544,13.13470115,.00022876,87.8979,317.2843,121.3671,238.7682,0,U,55148,999,17211,-.98888953E-3,-.348E-5,0
ONEWEB-0570,2023-004K,2026-07-01T22:11:06.578880,13.18685455,.00022129,87.9173,332.5359,90.0274,270.1112,0,U,55149,999,17163,-.21173152E-4,.5E-7,0
ONEWEB-0571,2023-004L,2026-07-01T22:01:23.407392,13.18692367,.00026854,87.9197,332.5380,120.2413,239.8985,0,U,55150,999,17164,.15533752E-2,.625E-5,0
